*******************************************************************************
JPL/HORIZONS                1268 Libya (1930 HJ)           2023-Sep-04 11:11:10
Rec #:    1268 (+COV) Soln.date: 2023-Aug-21_20:16:17   # obs: 4877 (1930-2023)
 
IAU76/J2000 helio. ecliptic osc. elements (au, days, deg., period=Julian yrs):
 
  EPOCH=  2457296.5 ! 2015-Oct-01.00 (TDB)         Residual RMS= .27084
   EC= .1020722247758291   QR= 3.572875367208898   TP= 2456739.9234360745
   OM= 351.0285840582803   W=  120.2232050840287   IN= 4.428114836983384
   A= 3.979023108308368    MA= 69.11372445512821   ADIST= 4.385170849407838
   PER= 7.9373             N= .124176491           ANGMOM= .034134646
   DAN= 4.15084            DDN= 3.74514            L= 111.3263437
   B= 3.8252389            MOID= 2.59301996        TP= 2014-Mar-23.4234360745
 
Asteroid physical parameters (km, seconds, rotational period in hours):
   GM= n.a.                RAD= 48.355             ROTPER= 17.572
   H= 9.1                  G= .150                 B-V= .663
                           ALBEDO= .043            STYP= P

ASTEROID comments: 
1: soln ref.= JPL#119, OCC=0
2: source=ORB
*******************************************************************************


*******************************************************************************
Ephemeris / API_USER Mon Sep  4 11:11:10 2023 Pasadena, USA      / Horizons
*******************************************************************************
Target body name: 1268 Libya (1930 HJ)            {source: JPL#119}
Center body name: Solar System Barycenter (0)     {source: DE441}
Center-site name: BODY CENTER
*******************************************************************************
Start time      : A.D. 2023-Aug-12 00:00:00.0000 TDB
Stop  time      : A.D. 2023-Aug-13 00:00:00.0000 TDB
Step-size       : 2880 minutes
*******************************************************************************
Center geodetic : 0.0, 0.0, 0.0                   {E-lon(deg),Lat(deg),Alt(km)}
Center cylindric: 0.0, 0.0, 0.0                   {E-lon(deg),Dxy(km),Dz(km)}
Center radii    : (undefined)
Small perturbers: Yes                             {source: SB441-N16}
Output units    : KM-S
Calendar mode   : Mixed Julian/Gregorian
Output type     : GEOMETRIC cartesian states
Output format   : 2 (position and velocity)
Reference frame : Ecliptic of J2000.0
*******************************************************************************
Initial IAU76/J2000 heliocentric ecliptic osculating elements (au, days, deg.):
  EPOCH=  2457296.5 ! 2015-Oct-01.00 (TDB)         Residual RMS= .27084        
   EC= .1020722247758291   QR= 3.572875367208898   TP= 2456739.9234360745      
   OM= 351.0285840582803   W=  120.2232050840287   IN= 4.428114836983384       
  Equivalent ICRF heliocentric cartesian coordinates (au, au/d):
   X=-3.790626769521861E+00  Y=-6.769770559680092E-01  Z=-4.087367199390442E-01
  VX= 9.428426879375023E-04 VY=-7.795716228944668E-03 VZ=-4.099717557624704E-03
Asteroid physical parameters (km, seconds, rotational period in hours):        
   GM= n.a.                RAD= 48.355             ROTPER= 17.572              
   H= 9.1                  G= .150                 B-V= .663                   
                           ALBEDO= .043            STYP= P                     
*******************************************************************************
JDTDB
   X     Y     Z
   VX    VY    VZ
*******************************************************************************
$$SOE
2460168.500000000 = A.D. 2023-Aug-12 00:00:00.0000 TDB 
 X =-5.725275595745931E+08 Y =-8.930843454105507E+07 Z =-1.369674391531461E+07
 VX= 8.736801782217682E-01 VY=-1.531570439917143E+01 VZ=-1.158924003785266E+00
$$EOE
*******************************************************************************
 
TIME

  Barycentric Dynamical Time ("TDB" or T_eph) output was requested. This
continuous coordinate time is equivalent to the relativistic proper time
of a clock at rest in a reference frame co-moving with the solar system
barycenter but outside the system's gravity well. It is the independent
variable in the solar system relativistic equations of motion.

  TDB runs at a uniform rate of one SI second per second and is independent
of irregularities in Earth's rotation.
 
CALENDAR SYSTEM

  Mixed calendar mode was active such that calendar dates after AD 1582-Oct-15
(if any) are in the modern Gregorian system. Dates prior to 1582-Oct-5 (if any)
are in the Julian calendar system, which is automatically extended for dates
prior to its adoption on 45-Jan-1 BC.  The Julian calendar is useful for
matching historical dates. The Gregorian calendar more accurately corresponds
to the Earth's orbital motion and seasons. A "Gregorian-only" calendar mode is
available if such physical events are the primary interest.

REFERENCE FRAME AND COORDINATES

  Ecliptic at the standard reference epoch

    Reference epoch: J2000.0
    X-Y plane: adopted Earth orbital plane at the reference epoch
               Note: IAU76 obliquity of 84381.448 arcseconds wrt ICRF X-Y plane
    X-axis   : ICRF
    Z-axis   : perpendicular to the X-Y plane in the directional (+ or -) sense
               of Earth's north pole at the reference epoch.

  Symbol meaning:

    JDTDB    Julian Day Number, Barycentric Dynamical Time
      X      X-component of position vector (km)
      Y      Y-component of position vector (km)
      Z      Z-component of position vector (km)
      VX     X-component of velocity vector (km/sec)                           
      VY     Y-component of velocity vector (km/sec)                           
      VZ     Z-component of velocity vector (km/sec)                           

ABERRATIONS AND CORRECTIONS

 Geometric state vectors have NO corrections or aberrations applied.

Computations by ...

    Solar System Dynamics Group, Horizons On-Line Ephemeris System
    4800 Oak Grove Drive, Jet Propulsion Laboratory
    Pasadena, CA  91109   USA

    General site: https://ssd.jpl.nasa.gov/
    Mailing list: https://ssd.jpl.nasa.gov/email_list.html
    System news : https://ssd.jpl.nasa.gov/horizons/news.html
    User Guide  : https://ssd.jpl.nasa.gov/horizons/manual.html
    Connect     : browser        https://ssd.jpl.nasa.gov/horizons/app.html#/x
                  API            https://ssd-api.jpl.nasa.gov/doc/horizons.html
                  command-line   telnet ssd.jpl.nasa.gov 6775
                  e-mail/batch   https://ssd.jpl.nasa.gov/ftp/ssd/hrzn_batch.txt
                  scripts        https://ssd.jpl.nasa.gov/ftp/ssd/SCRIPTS
    Author      : Jon.D.Giorgini@jpl.nasa.gov
*******************************************************************************
